[{"OBJECT_NAME":"STARLINK-5339","OBJECT_ID":"2023-065H","EPOCH":"2026-03-09T22:00:01.999584","MEAN_MOTION":15.09415232,"ECCENTRICITY":0.00013424,"INCLINATION":43.0003,"RA_OF_ASC_NODE":209.1641,"ARG_OF_PERICENTER":302.2682,"MEAN_ANOMALY":222.4201,"EPHEMERIS_TYPE":0,"CLASSIFICATION_TYPE":"U","NORAD_CAT_ID":56510,"ELEMENT_SET_NO":999,"REV_AT_EPOCH":567,"BSTAR":0.0041730861,"MEAN_MOTION_DOT":0.00068318,"MEAN_MOTION_DDOT":0},{"OBJECT_NAME":"H-2A R\/B","OBJECT_ID":"2014-029F","EPOCH":"2026-03-09T22:37:37.455168","MEAN_MOTION":15.13509735,"ECCENTRICITY":0.00104243,"INCLINATION":98.1953,"RA_OF_ASC_NODE":57.5904,"ARG_OF_PERICENTER":119.3216,"MEAN_ANOMALY":240.9056,"EPHEMERIS_TYPE":0,"CLASSIFICATION_TYPE":"U","NORAD_CAT_ID":39771,"ELEMENT_SET_NO":999,"REV_AT_EPOCH":64385,"BSTAR":0.00040980878,"MEAN_MOTION_DOT":7.275e-5,"MEAN_MOTION_DDOT":0}]
